[
   {
      "name": "PEASSS",
      "line1": "1 42015U 17008BV  21092.85162190  .00002230  00000-0  87899-4 0  9996",
      "line2": "2 42015  97.3185 160.1908 0006844  34.0340 326.1337 15.26604734229486",
      "bstar": 8.7899,
      "inc": 97.3185,
      "raan": 160.1908,
      "ecc": 0.0006844,
      "argp": 34.034,
      "nu": 326.1337,
      "mmo": 15.26604734,
      "a": 6864.10795
   },
   {
      "name": "AL-FARABI 1",
      "line1": "1 42016U 17008BW  21092.75625045  .00002739  00000-0  10377-3 0  9999",
      "line2": "2 42016  97.3229 161.6977 0006556  33.5905 326.5749 15.27733822229673",
      "bstar": 10.377,
      "inc": 97.3229,
      "raan": 161.6977,
      "ecc": 0.0006556,
      "argp": 33.5905,
      "nu": 326.5749,
      "mmo": 15.27733822,
      "a": 6860.72554
   },
   {
      "name": "NAYIF-1 (EO-88)",
      "line1": "1 42017U 17008BX  21092.85749477  .00002906  00000-0  10976-3 0  9998",
      "line2": "2 42017  97.3223 161.8053 0006607  32.3725 327.7918 15.27785457229716",
      "bstar": 10.976,
      "inc": 97.3223,
      "raan": 161.8053,
      "ecc": 0.0006607,
      "argp": 32.3725,
      "nu": 327.7918,
      "mmo": 15.27785457,
      "a": 6860.57095
   },
   {
      "name": "UCLSAT",
      "line1": "1 42765U 17036A   21092.85361776  .00002324  00000-0  97034-4 0  9996",
      "line2": "2 42765  97.2590 144.7801 0012758  86.6286 273.6411 15.24550238210655",
      "bstar": 9.7034,
      "inc": 97.259,
      "raan": 144.7801,
      "ecc": 0.0012758,
      "argp": 86.6286,
      "nu": 273.6411,
      "mmo": 15.24550238,
      "a": 6870.27332
   },
   {
      "name": "LITUANICASAT-2",
      "line1": "1 42768U 17036D   21092.87045169  .00003808  00000-0  15142-3 0  9993",
      "line2": "2 42768  97.2663 145.3722 0015624  76.7185 283.5795 15.25770769209940",
      "bstar": 15.142,
      "inc": 97.2663,
      "raan": 145.3722,
      "ecc": 0.0015624,
      "argp": 76.7185,
      "nu": 283.5795,
      "mmo": 15.25770769,
      "a": 6866.60894
   },
   {
      "name": "AALTO-1",
      "line1": "1 42775U 17036L   21092.71028499  .00001394  00000-0  62971-4 0  9992",
      "line2": "2 42775  97.2571 141.5699 0015341  83.1111 277.1871 15.22485295209672",
      "bstar": 6.2971,
      "inc": 97.2571,
      "raan": 141.5699,
      "ecc": 0.0015341,
      "argp": 83.1111,
      "nu": 277.1871,
      "mmo": 15.22485295,
      "a": 6876.484
   },
   {
      "name": "URSA MAIOR",
      "line1": "1 42776U 17036M   21092.85678781  .00001551  00000-0  69222-4 0  9994",
      "line2": "2 42776  97.2585 142.1350 0015127  82.2923 278.0031 15.22730904209715",
      "bstar": 6.9222,
      "inc": 97.2585,
      "raan": 142.135,
      "ecc": 0.0015127,
      "argp": 82.2923,
      "nu": 278.0031,
      "mmo": 15.22730904,
      "a": 6875.74455
   },
   {
      "name": "COMPASS 2",
      "line1": "1 42777U 17036N   21092.88202615  .00003271  00000-0  13250-3 0  9997",
      "line2": "2 42777  97.2646 145.6235 0013508  78.3143 281.9611 15.25278212209893",
      "bstar": 13.25,
      "inc": 97.2646,
      "raan": 145.6235,
      "ecc": 0.0013508,
      "argp": 78.3143,
      "nu": 281.9611,
      "mmo": 15.25278212,
      "a": 6868.08714
   },
   {
      "name": "DIAMOND RED",
      "line1": "1 42783U 17036U   21092.86354645  .00001669  00000-0  72372-4 0  9993",
      "line2": "2 42783  97.2598 143.7277 0013507  89.1033 271.1752 15.23642857209804",
      "bstar": 7.2372,
      "inc": 97.2598,
      "raan": 143.7277,
      "ecc": 0.0013507,
      "argp": 89.1033,
      "nu": 271.1752,
      "mmo": 15.23642857,
      "a": 6873.0007
   },
   {
      "name": "PEGASUS",
      "line1": "1 42784U 17036V   21092.87858581  .00002071  00000-0  87793-4 0  9994",
      "line2": "2 42784  97.2602 144.3669 0013315  87.6815 272.5947 15.24148614209849",
      "bstar": 8.7793,
      "inc": 97.2602,
      "raan": 144.3669,
      "ecc": 0.0013315,
      "argp": 87.6815,
      "nu": 272.5947,
      "mmo": 15.24148614,
      "a": 6871.48017
   },
   {
      "name": "DIAMOND GREEN",
      "line1": "1 42785U 17036W   21092.86246770  .00001786  00000-0  77217-4 0  9997",
      "line2": "2 42785  97.2601 143.7714 0013425  89.8442 270.4334 15.23654029209876",
      "bstar": 7.7217,
      "inc": 97.2601,
      "raan": 143.7714,
      "ecc": 0.0013425,
      "argp": 89.8442,
      "nu": 270.4334,
      "mmo": 15.23654029,
      "a": 6872.9671
   },
   {
      "name": "DIAMOND BLUE",
      "line1": "1 42786U 17036X   21092.86151346  .00001808  00000-0  78122-4 0  9993",
      "line2": "2 42786  97.2599 143.7638 0013265  90.0733 270.2025 15.23650223209874",
      "bstar": 7.8122,
      "inc": 97.2599,
      "raan": 143.7638,
      "ecc": 0.0013265,
      "argp": 90.0733,
      "nu": 270.2025,
      "mmo": 15.23650223,
      "a": 6872.97855
   },
   {
      "name": "NUDTSAT",
      "line1": "1 42787U 17036Y   21092.91161588  .00003560  00000-0  14122-3 0  9995",
      "line2": "2 42787  97.2657 146.5624 0012518  78.2828 281.9814 15.25933900209816",
      "bstar": 14.122,
      "inc": 97.2657,
      "raan": 146.5624,
      "ecc": 0.0012518,
      "argp": 78.2828,
      "nu": 281.9814,
      "mmo": 15.259339,
      "a": 6866.11954
   },
   {
      "name": "SUCHAI",
      "line1": "1 42788U 17036Z   21092.78416622  .00002452  00000-0  10122-3 0  9998",
      "line2": "2 42788  97.2608 145.1683 0012817  85.9920 274.2783 15.24879175209950",
      "bstar": 10.122,
      "inc": 97.2608,
      "raan": 145.1683,
      "ecc": 0.0012817,
      "argp": 85.992,
      "nu": 274.2783,
      "mmo": 15.24879175,
      "a": 6869.28527
   },
   {
      "name": "SKCUBE",
      "line1": "1 42789U 17036AA  21092.86649188  .00002353  00000-0  97938-4 0  9994",
      "line2": "2 42789  97.2602 144.9956 0012733  86.2181 274.0513 15.24642092209871",
      "bstar": 9.7938,
      "inc": 97.2602,
      "raan": 144.9956,
      "ecc": 0.0012733,
      "argp": 86.2181,
      "nu": 274.0513,
      "mmo": 15.24642092,
      "a": 6869.99737
   },
   {
      "name": "VZLUSAT-1",
      "line1": "1 42790U 17036AB  21092.90459085  .00003182  00000-0  12662-3 0  9997",
      "line2": "2 42790  97.2633 146.5458 0012052  82.9845 277.2764 15.25911333209967",
      "bstar": 12.662,
      "inc": 97.2633,
      "raan": 146.5458,
      "ecc": 0.0012052,
      "argp": 82.9845,
      "nu": 277.2764,
      "mmo": 15.25911333,
      "a": 6866.18724
   },
   {
      "name": "ROBUSTA-1B",
      "line1": "1 42792U 17036AD  21092.78121600  .00002370  00000-0  97971-4 0  9999",
      "line2": "2 42792  97.2605 145.2632 0012315  86.6171 273.6476 15.24871312209896",
      "bstar": 9.7971,
      "inc": 97.2605,
      "raan": 145.2632,
      "ecc": 0.0012315,
      "argp": 86.6171,
      "nu": 273.6476,
      "mmo": 15.24871312,
      "a": 6869.30889
   },
   {
      "name": "CICERO 6",
      "line1": "1 42793U 17036AE  21092.92010881  .00001591  00000-0  68709-4 0  9995",
      "line2": "2 42793  97.2581 144.3604 0011759  89.2426 271.0159 15.23862845209937",
      "bstar": 6.8709,
      "inc": 97.2581,
      "raan": 144.3604,
      "ecc": 0.0011759,
      "argp": 89.2426,
      "nu": 271.0159,
      "mmo": 15.23862845,
      "a": 6872.33922
   },
   {
      "name": "D-SAT",
      "line1": "1 42794U 17036AF  21092.81951858  .00000609  00000-0  57242-4 0  9991",
      "line2": "2 42794  97.4682 116.7064 0127149 118.3895 243.0211 14.91497877205780",
      "bstar": 5.7242,
      "inc": 97.4682,
      "raan": 116.7064,
      "ecc": 0.0127149,
      "argp": 118.3895,
      "nu": 243.0211,
      "mmo": 14.91497877,
      "a": 6971.40128
   },
   {
      "name": "CORVUS BC2",
      "line1": "1 42846U 17042X   21092.93058734  .00000440  00000-0  48243-4 0  9994",
      "line2": "2 42846  97.4842 328.7677 0010551  38.5992 321.5980 14.92258130202577",
      "bstar": 4.8243,
      "inc": 97.4842,
      "raan": 328.7677,
      "ecc": 0.0010551,
      "argp": 38.5992,
      "nu": 321.598,
      "mmo": 14.9225813,
      "a": 6969.03329
   },
   {
      "name": "CORVUS BC1",
      "line1": "1 42847U 17042Y   21092.90653467  .00000099  00000-0  14779-4 0  9993",
      "line2": "2 42847  97.4846 328.9685 0010198  38.2190 321.9751 14.92360327202579",
      "bstar": 1.4779,
      "inc": 97.4846,
      "raan": 328.9685,
      "ecc": 0.0010198,
      "argp": 38.219,
      "nu": 321.9751,
      "mmo": 14.92360327,
      "a": 6968.71512
   },
   {
      "name": "MIRATA",
      "line1": "1 43015U 17073C   21092.70177932  .00001131  00000-0  91517-4 0  9994",
      "line2": "2 43015  97.7088 359.8967 0250244 184.0630 175.8556 14.80480068182007",
      "bstar": 9.1517,
      "inc": 97.7088,
      "raan": 359.8967,
      "ecc": 0.0250244,
      "argp": 184.063,
      "nu": 175.8556,
      "mmo": 14.80480068,
      "a": 7005.9462
   },
   {
      "name": "MAKERSAT 0",
      "line1": "1 43016U 17073D   21092.69983642  .00000776  00000-0  64806-4 0  9991",
      "line2": "2 43016  97.7122 359.9777 0253812 185.9862 173.8304 14.79809076181974",
      "bstar": 6.4806,
      "inc": 97.7122,
      "raan": 359.9777,
      "ecc": 0.0253812,
      "argp": 185.9862,
      "nu": 173.8304,
      "mmo": 14.79809076,
      "a": 7008.06385
   },
   {
      "name": "DELLINGR (RBLE)",
      "line1": "1 43021U 98067NJ  21092.76285036  .00103215  15170-4  30933-3 0  9992",
      "line2": "2 43021  51.6268 225.7311 0002823 334.0478  26.0387 15.92228305192549",
      "bstar": 30.933,
      "inc": 51.6268,
      "raan": 225.7311,
      "ecc": 0.0002823,
      "argp": 334.0478,
      "nu": 26.0387,
      "mmo": 15.92228305,
      "a": 6674.18563
   }
]